{"type": "FeatureCollection", "features": [ {"type": "Feature", "properties": {"norad_id": 34610, "name": "COSMOS 2251 DEB", "group": "cosmos-2251-debris", "lat": -14.494199596972047, "lon": -119.55265819416167, "alt_km": 757.5438690282435, "timestamp": "2025-12-22T18:58:53.827501+00:00", "meta": {"OBJECT_NAME": "COSMOS 2251 DEB", "OBJECT_ID": "1993-036WF", "EPOCH": "2025-12-16T19:43:22.866816", "MEAN_MOTION": 14.07083274, "ECCENTRICITY": 0.01805005, "INCLINATION": 74.0182, "RA_OF_ASC_NODE": 255.1605, "ARG_OF_PERICENTER": 24.866, "MEAN_ANOMALY": 336.104, "EPHEMERIS_TYPE": 0, "CLASSIFICATION_TYPE": "U", "NORAD_CAT_ID": 34610, "ELEMENT_SET_NO": 999, "REV_AT_EPOCH": 85617, "BSTAR": 0.0012903668, "MEAN_MOTION_DOT": 2.479e-05, "MEAN_MOTION_DDOT": 0}, "tle": {"line1": "1 34610U 93036WF  25350.82179244  .00002479  00000+0  12904-2 0  9996", "line2": "2 34610  74.0182 255.1605 0180500  24.8660 336.1040 14.07083274856172"}}, "geometry": {"type": "Point", "coordinates": [-119.55265819416167, -14.494199596972047]}}, {"type": "Feature", "properties": {"norad_id": 34611, "name": "COSMOS 2251 DEB", "group": "cosmos-2251-debris", "lat": 37.63505692884165, "lon": -111.2236116809243, "alt_km": 644.7444188201671, "timestamp": "2025-12-22T18:58:53.827511+00:00", "meta": {"OBJECT_NAME": "COSMOS 2251 DEB", "OBJECT_ID": "1993-036WG", "EPOCH": "2025-12-22T00:37:52.656960", "MEAN_MOTION": 14.69657582, "ECCENTRICITY": 0.00217381, "INCLINATION": 74.0537, "RA_OF_ASC_NODE": 82.9923, "ARG_OF_PERICENTER": 121.1927, "MEAN_ANOMALY": 295.5639, "EPHEMERIS_TYPE": 0, "CLASSIFICATION_TYPE": "U", "NORAD_CAT_ID": 34611, "ELEMENT_SET_NO": 999, "REV_AT_EPOCH": 88527, "BSTAR": 0.0014537686, "MEAN_MOTION_DOT": 8.662e-05, "MEAN_MOTION_DDOT": 0}, "tle": {"line1": "1 34611U 93036WG  25356.02630390  .00008662  00000+0  14538-2 0  9994", "line2": "2 34611  74.0537  82.9923 0021738 121.1927 295.5639 14.69657582885272"}}, "geometry": {"type": "Point", "coordinates": [-111.2236116809243, 37.63505692884165]}}, {"type": "Feature", "properties": {"norad_id": 34613, "name": "COSMOS 2251 DEB", "group": "cosmos-2251-debris", "lat": 65.59184201224868, "lon": 40.96863481565909, "alt_km": 721.6028991008225, "timestamp": "2025-12-22T18:58:53.827521+00:00", "meta": {"OBJECT_NAME": "COSMOS 2251 DEB", "OBJECT_ID": "1993-036WJ", "EPOCH": "2025-12-22T00:02:12.767424", "MEAN_MOTION": 14.26485376, "ECCENTRICITY": 0.011054, "INCLINATION": 73.9632, "RA_OF_ASC_NODE": 261.7345, "ARG_OF_PERICENTER": 91.1369, "MEAN_ANOMALY": 285.001, "EPHEMERIS_TYPE": 0, "CLASSIFICATION_TYPE": "U", "NORAD_CAT_ID": 34613, "ELEMENT_SET_NO": 999, "REV_AT_EPOCH": 86595, "BSTAR": 0.0011767, "MEAN_MOTION_DOT": 2.999e-05, "MEAN_MOTION_DDOT": 0}, "tle": {"line1": "1 34613U 93036WJ  25356.00153666  .00002999  00000+0  11767-2 0  9998", "line2": "2 34613  73.9632 261.7345 0110540  91.1369 285.0010 14.26485376865952"}}, "geometry": {"type": "Point", "coordinates": [40.96863481565909, 65.59184201224868]}}, {"type": "Feature", "properties": {"norad_id": 34614, "name": "COSMOS 2251 DEB", "group": "cosmos-2251-debris", "lat": 61.26341007704618, "lon": -2.3750005741366285, "alt_km": 867.787190211865, "timestamp": "2025-12-22T18:58:53.827531+00:00", "meta": {"OBJECT_NAME": "COSMOS 2251 DEB", "OBJECT_ID": "1993-036WK", "EPOCH": "2025-12-18T23:21:59.727744", "MEAN_MOTION": 14.17670739, "ECCENTRICITY": 0.0197223, "INCLINATION": 73.8822, "RA_OF_ASC_NODE": 332.666, "ARG_OF_PERICENTER": 325.6345, "MEAN_ANOMALY": 63.1604, "EPHEMERIS_TYPE": 0, "CLASSIFICATION_TYPE": "U", "NORAD_CAT_ID": 34614, "ELEMENT_SET_NO": 999, "REV_AT_EPOCH": 84855, "BSTAR": 0.0046815228, "MEAN_MOTION_DOT": 0.00011531, "MEAN_MOTION_DDOT": 0}, "tle": {"line1": "1 34614U 93036WK  25352.97360796  .00011531  00000+0  46815-2 0  9999", "line2": "2 34614  73.8822 332.6660 0197223 325.6345  63.1604 14.17670739848553"}}, "geometry": {"type": "Point", "coordinates": [-2.3750005741366285, 61.26341007704618]}}, {"type": "Feature", "properties": {"norad_id": 34615, "name": "COSMOS 2251 DEB", "group": "cosmos-2251-debris", "lat": 66.97883290044119, "lon": 55.56530262149293, "alt_km": 975.983210825083, "timestamp": "2025-12-22T18:58:53.827541+00:00", "meta": {"OBJECT_NAME": "COSMOS 2251 DEB", "OBJECT_ID": "1993-036WL", "EPOCH": "2025-12-20T18:38:01.201920", "MEAN_MOTION": 13.52204408, "ECCENTRICITY": 0.0400621, "INCLINATION": 74.0047, "RA_OF_ASC_NODE": 281.2515, "ARG_OF_PERICENTER": 186.7825, "MEAN_ANOMALY": 201.5832, "EPHEMERIS_TYPE": 0, "CLASSIFICATION_TYPE": "U", "NORAD_CAT_ID": 34615, "ELEMENT_SET_NO": 999, "REV_AT_EPOCH": 82924, "BSTAR": 5.7151311e-05, "MEAN_MOTION_DOT": 4.1e-07, "MEAN_MOTION_DDOT": 0}, "tle": {"line1": "1 34615U 93036WL  25354.77640280  .00000041  00000+0  57151-4 0  9990", "line2": "2 34615  74.0047 281.2515 0400621 186.7825 201.5832 13.52204408829242"}}, "geometry": {"type": "Point", "coordinates": [55.56530262149293, 66.97883290044119]}}, {"type": "Feature", "properties": {"norad_id": 34619, "name": "COSMOS 2251 DEB", "group": "cosmos-2251-debris", "lat": 52.69951726683994, "lon": -21.43538640681372, "alt_km": 730.0523234223356, "timestamp": "2025-12-22T18:58:53.827551+00:00", "meta": {"OBJECT_NAME": "COSMOS 2251 DEB", "OBJECT_ID": "1993-036WQ", "EPOCH": "2025-12-21T22:44:17.672928", "MEAN_MOTION": 14.64666718, "ECCENTRICITY": 0.00947682, "INCLINATION": 74.0432, "RA_OF_ASC_NODE": 182.2451, "ARG_OF_PERICENTER": 274.9952, "MEAN_ANOMALY": 84.0404, "EPHEMERIS_TYPE": 0, "CLASSIFICATION_TYPE": "U", "NORAD_CAT_ID": 34619, "ELEMENT_SET_NO": 999, "REV_AT_EPOCH": 89433, "BSTAR": 0.00019444734, "MEAN_MOTION_DOT": 1.069e-05, "MEAN_MOTION_DDOT": 0}, "tle": {"line1": "1 34619U 93036WQ  25355.94742677  .00001069  00000+0  19445-3 0  9991", "line2": "2 34619  74.0432 182.2451 0094768 274.9952  84.0404 14.64666718894336"}}, "geometry": {"type": "Point", "coordinates": [-21.43538640681372, 52.69951726683994]}}, {"type": "Feature", "properties": {"norad_id": 34620, "name": "COSMOS 2251 DEB", "group": "cosmos-2251-debris", "lat": 17.132546040194793, "lon": 15.640908041316992, "alt_km": 711.0953100017578, "timestamp": "2025-12-22T18:58:53.827561+00:00", "meta": {"OBJECT_NAME": "COSMOS 2251 DEB", "OBJECT_ID": "1993-036WR", "EPOCH": "2025-12-22T00:00:17.871840", "MEAN_MOTION": 14.49231042, "ECCENTRICITY": 0.00797451, "INCLINATION": 74.0502, "RA_OF_ASC_NODE": 202.1798, "ARG_OF_PERICENTER": 236.5192, "MEAN_ANOMALY": 122.8329, "EPHEMERIS_TYPE": 0, "CLASSIFICATION_TYPE": "U", "NORAD_CAT_ID": 34620, "ELEMENT_SET_NO": 999, "REV_AT_EPOCH": 86961, "BSTAR": 0.0020088498, "MEAN_MOTION_DOT": 7.951e-05, "MEAN_MOTION_DDOT": 0}, "tle": {"line1": "1 34620U 93036WR  25356.00020685  .00007951  00000+0  20088-2 0  9999", "line2": "2 34620  74.0502 202.1798 0079745 236.5192 122.8329 14.49231042869611"}}, "geometry": {"type": "Point", "coordinates": [15.640908041316992, 17.132546040194793]}}, {"type": "Feature", "properties": {"norad_id": 34622, "name": "COSMOS 2251 DEB", "group": "cosmos-2251-debris", "lat": -70.74304986388485, "lon": 163.96535598009325, "alt_km": 850.3475188697839, "timestamp": "2025-12-22T18:58:53.827596+00:00", "meta": {"OBJECT_NAME": "COSMOS 2251 DEB", "OBJECT_ID": "1993-036WT", "EPOCH": "2025-12-21T19:57:25.914816", "MEAN_MOTION": 14.22079375, "ECCENTRICITY": 0.01047903, "INCLINATION": 74.0423, "RA_OF_ASC_NODE": 290.6983, "ARG_OF_PERICENTER": 11.0154, "MEAN_ANOMALY": 19.7472, "EPHEMERIS_TYPE": 0, "CLASSIFICATION_TYPE": "U", "NORAD_CAT_ID": 34622, "ELEMENT_SET_NO": 999, "REV_AT_EPOCH": 86589, "BSTAR": 0.00067913671, "MEAN_MOTION_DOT": 1.564e-05, "MEAN_MOTION_DDOT": 0}, "tle": {"line1": "1 34622U 93036WT  25355.83154994  .00001564  00000+0  67914-3 0  9996", "line2": "2 34622  74.0423 290.6983 0104790  11.0154  19.7472 14.22079375865895"}}, "geometry": {"type": "Point", "coordinates": [163.96535598009325, -70.74304986388485]}}, {"type": "Feature", "properties": {"norad_id": 34626, "name": "COSMOS 2251 DEB", "group": "cosmos-2251-debris", "lat": 71.45653358956432, "lon": 65.84633113250008, "alt_km": 639.8889473414129, "timestamp": "2025-12-22T18:58:53.827615+00:00", "meta": {"OBJECT_NAME": "COSMOS 2251 DEB", "OBJECT_ID": "1993-036WX", "EPOCH": "2025-12-21T07:20:03.192000", "MEAN_MOTION": 14.72291776, "ECCENTRICITY": 0.00269802, "INCLINATION": 74.0484, "RA_OF_ASC_NODE": 307.2376, "ARG_OF_PERICENTER": 32.9629, "MEAN_ANOMALY": 117.0243, "EPHEMERIS_TYPE": 0, "CLASSIFICATION_TYPE": "U", "NORAD_CAT_ID": 34626, "ELEMENT_SET_NO": 999, "REV_AT_EPOCH": 89270, "BSTAR": 0.00078061568, "MEAN_MOTION_DOT": 4.932e-05, "MEAN_MOTION_DDOT": 0}, "tle": {"line1": "1 34626U 93036WX  25355.30559250  .00004932  00000+0  78062-3 0  9994", "line2": "2 34626  74.0484 307.2376 0026980  32.9629 117.0243 14.72291776892704"}}, "geometry": {"type": "Point", "coordinates": [65.84633113250008, 71.45653358956432]}}, {"type": "Feature", "properties": {"norad_id": 34634, "name": "COSMOS 2251 DEB", "group": "cosmos-2251-debris", "lat": 24.430056270788487, "lon": 23.40722876933473, "alt_km": 708.5698519674725, "timestamp": "2025-12-22T18:58:53.827627+00:00", "meta": {"OBJECT_NAME": "COSMOS 2251 DEB", "OBJECT_ID": "1993-036XF", "EPOCH": "2025-12-22T06:15:27.205920", "MEAN_MOTION": 14.55682831, "ECCENTRICITY": 0.00437302, "INCLINATION": 74.0514, "RA_OF_ASC_NODE": 16.9468, "ARG_OF_PERICENTER": 121.435, "MEAN_ANOMALY": 7.451, "EPHEMERIS_TYPE": 0, "CLASSIFICATION_TYPE": "U", "NORAD_CAT_ID": 34634, "ELEMENT_SET_NO": 999, "REV_AT_EPOCH": 88920, "BSTAR": 0.00026704885, "MEAN_MOTION_DOT": 1.153e-05, "MEAN_MOTION_DDOT": 0}, "tle": {"line1": "1 34634U 93036XF  25356.26073155  .00001153  00000+0  26705-3 0  9993", "line2": "2 34634  74.0514  16.9468 0043730 121.4350   7.4510 14.55682831889207"}}, "geometry": {"type": "Point", "coordinates": [23.40722876933473, 24.430056270788487]}}]}